*******************************************************************************
Ephemeris / WWW_USER Mon Jul 15 19:28:04 2024 Pasadena, USA      / Horizons    
*******************************************************************************
Target body name: (2018 RA1)                      {source: JPL#6}
Center body name: Earth (399)                     {source: DE441}
Center-site name: Gemini South Obs., Cerro Pachon
*******************************************************************************
Start time      : A.D. 2018-Oct-19 23:04:00.0000 UT      
Stop  time      : A.D. 2018-Oct-20 09:51:00.0000 UT      
Step-size       : 1 minutes
*******************************************************************************
Target pole/equ : undefined
Target radii    : undefined                                                    
Center geodetic : 289.2634, -30.2406227, 2.71233  {E-lon(deg),Lat(deg),Alt(km)}
Center cylindric: 289.2634,5517.21435,-3194.81213 {E-lon(deg),Dxy(km),Dz(km)}
Center pole/equ : ITRF93                          {East-longitude positive}
Center radii    : 6378.137, 6378.137, 6356.752 km {Equator_a, b, pole_c}       
Target primary  : Sun
Vis. interferer : MOON (R_eq= 1737.400) km        {source: DE441}
Rel. light bend : Sun                             {source: DE441}
Rel. lght bnd GM: 1.3271E+11 km^3/s^2                                          
Small-body perts: Yes                             {source: SB441-N16}
Atmos refraction: NO (AIRLESS)
RA format       : HMS
Time format     : CAL 
Calendar mode   : Mixed Julian/Gregorian
RTS-only print  : NO       
EOP file        : eop.240715.p241008                                           
EOP coverage    : DATA-BASED 1962-JAN-20 TO 2024-JUL-15. PREDICTS-> 2024-OCT-07
Units conversion: 1 au= 149597870.700 km, c= 299792.458 km/s, 1 day= 86400.0 s 
Table cut-offs 1: Elevation (-90.0deg=NO ),Airmass (>38.000=NO), Daylight (YES)
Table cut-offs 2: Solar elongation (  0.0,180.0=NO ),Local Hour Angle( 0.0=NO )
Table cut-offs 3: RA/DEC angular rate (     0.0=NO )                           
*******************************************************************************
Initial IAU76/J2000 heliocentric ecliptic osculating elements (au, days, deg.):
  EPOCH=  2458369.5 ! 2018-Sep-08.00 (TDB)         Residual RMS= .21275        
   EC= .3232115344739424   QR= .7703453101153647   TP= 2458436.6763547547      
   OM= 166.2054176892707   W=  269.7217787981747   IN= 8.763099478405824       
  Equivalent ICRF heliocentric cartesian coordinates (au, au/d):
   X= 9.899686155013647E-01  Y=-2.468208982240139E-01  Z=-1.030323866474361E-01
  VX=-9.411283005844916E-04 VY= 1.717513364149167E-02 VZ= 4.613440841260365E-03
Asteroid physical parameters (km, seconds, rotational period in hours):        
   GM= n.a.                RAD= n.a.               ROTPER= n.a.                
   H= 26.4                 G= .150                 B-V= n.a.                   
                           ALBEDO= n.a.            STYP= n.a.                  
*******************************************************************************
 Date__(UT)__HR:MN     R.A._________(ICRF)_________DEC
******************************************************
$$SOE
 2018-Oct-20 09:19 N   10 59 45.564722 -17 29 01.97765
 2018-Oct-20 09:20 N   10 59 45.622181 -17 29 01.66176
 2018-Oct-20 09:21 N   10 59 45.679606 -17 29 01.34581
 2018-Oct-20 09:22 N   10 59 45.736994 -17 29 01.02980
 2018-Oct-20 09:23 N   10 59 45.794348 -17 29 00.71373
 2018-Oct-20 09:24 N   10 59 45.851665 -17 29 00.39759
 2018-Oct-20 09:25 N   10 59 45.908948 -17 29 00.08139
 2018-Oct-20 09:26 N   10 59 45.966195 -17 28 59.76512
 2018-Oct-20 09:27 N   10 59 46.023408 -17 28 59.44879
 2018-Oct-20 09:28 N   10 59 46.080585 -17 28 59.13238
 2018-Oct-20 09:29 N   10 59 46.137727 -17 28 58.81592
 2018-Oct-20 09:30 N   10 59 46.194835 -17 28 58.49938
 2018-Oct-20 09:31 N   10 59 46.251907 -17 28 58.18277
 2018-Oct-20 09:32 N   10 59 46.308945 -17 28 57.86609
 2018-Oct-20 09:33 N   10 59 46.365948 -17 28 57.54934
 2018-Oct-20 09:34 N   10 59 46.422917 -17 28 57.23253
 2018-Oct-20 09:35 C   10 59 46.479851 -17 28 56.91563
 2018-Oct-20 09:36 C   10 59 46.536751 -17 28 56.59867
 2018-Oct-20 09:37 C   10 59 46.593616 -17 28 56.28164
 2018-Oct-20 09:38 C   10 59 46.650447 -17 28 55.96452
 2018-Oct-20 09:39 C   10 59 46.707244 -17 28 55.64734
 2018-Oct-20 09:40 C   10 59 46.764007 -17 28 55.33008
 2018-Oct-20 09:41 C   10 59 46.820736 -17 28 55.01274
 2018-Oct-20 09:42 C   10 59 46.877431 -17 28 54.69533
 2018-Oct-20 09:43 C   10 59 46.934092 -17 28 54.37784
 2018-Oct-20 09:44 C   10 59 46.990719 -17 28 54.06027
 2018-Oct-20 09:45 C   10 59 47.047313 -17 28 53.74262
 2018-Oct-20 09:46 C   10 59 47.103873 -17 28 53.42490
 2018-Oct-20 09:47 C   10 59 47.160400 -17 28 53.10709
 2018-Oct-20 09:48 C   10 59 47.216893 -17 28 52.78921
 2018-Oct-20 09:49 C   10 59 47.273353 -17 28 52.47124
 2018-Oct-20 09:50 C   10 59 47.329780 -17 28 52.15319
 2018-Oct-20 09:51 C   10 59 47.386173 -17 28 51.83506
